[{"OBJECT_NAME":"STARLINK-32911","OBJECT_ID":"2025-037V","EPOCH":"2026-03-09T22:00:01.999584","MEAN_MOTION":14.98355821,"ECCENTRICITY":0.00031361,"INCLINATION":70.0028,"RA_OF_ASC_NODE":354.065,"ARG_OF_PERICENTER":265.9496,"MEAN_ANOMALY":13.4985,"EPHEMERIS_TYPE":0,"CLASSIFICATION_TYPE":"U","NORAD_CAT_ID":63096,"ELEMENT_SET_NO":999,"REV_AT_EPOCH":576,"BSTAR":-0.002949172,"MEAN_MOTION_DOT":-0.0003513,"MEAN_MOTION_DDOT":0},{"OBJECT_NAME":"LEMUR-2-LUCILLE-ROSE","OBJECT_ID":"2025-135BV","EPOCH":"2026-03-09T20:33:39.744864","MEAN_MOTION":14.98437227,"ECCENTRICITY":0.00099823,"INCLINATION":97.7607,"RA_OF_ASC_NODE":185.354,"ARG_OF_PERICENTER":240.475,"MEAN_ANOMALY":119.5478,"EPHEMERIS_TYPE":0,"CLASSIFICATION_TYPE":"U","NORAD_CAT_ID":65403,"ELEMENT_SET_NO":999,"REV_AT_EPOCH":3375,"BSTAR":0.0012144011,"MEAN_MOTION_DOT":0.00014478,"MEAN_MOTION_DDOT":0}]
